NORAD_CAT_ID,OBJECT_NAME,OBJECT_TYPE,EPOCH,MEAN_MOTION,ECCENTRICITY,INCLINATION,RA_OF_ASC_NODE,ARG_OF_PERICENTER,MEAN_ANOMALY,BSTAR,MEAN_MOTION_DOT,MEAN_MOTION_DDOT,TLE_LINE0,TLE_LINE1,TLE_LINE2,SEMIMAJOR_AXIS,PERIOD,APOGEE,PERIGEE,DECAYED
52457.0,STARLINK-3899,PAYLOAD,2022-06-28 14:00:01,15.1993672,0.0001405,53.2177,10.231,81.0444,101.3538,-0.035604,-0.0072235,0.0,0 STARLINK-3899,1 52457U 22049G   22179.58334491 -.00722350  00000-0 -35604-1 0  9998,2 52457  53.2177  10.2310 0001405  81.0444 101.3538 15.19936720  8459,6884.169,94.741,507.001,505.066,0.0
52457.0,STARLINK-3899,PAYLOAD,2022-06-28 22:00:00,15.19425835,0.0001453999999999,53.2175,8.7123,73.9712,133.0446,-0.036055,-0.00720779,0.0,0 STARLINK-3899,1 52457U 22049G   22179.91667824 -.00720779  00000-0 -36055-1 0  9998,2 52457  53.2175   8.7123 0001454  73.9712 133.0446 15.19425835  1300,6885.712,94.773,508.578,506.576,0.0
52457.0,STARLINK-3899,PAYLOAD,2022-06-29 14:00:01,15.18406562,0.0001361,53.2176,5.6735,84.3242,170.1429,-0.037201,-0.0072187,0.0,0 STARLINK-3899,1 52457U 22049G   22180.58334491 -.00721870  00000-0 -37201-1 0  9991,2 52457  53.2176   5.6735 0001361  84.3242 170.1429 15.18406562  1305,6888.793000000002,94.836,511.595,509.72,0.0
52457.0,STARLINK-3899,PAYLOAD,2022-06-29 22:00:00,15.17895404,0.0001347,53.2175,4.1583,78.7305,198.5159,-0.037637,-0.00719747,0.0,0 STARLINK-3899,1 52457U 22049G   22180.91667824 -.00719747  00000-0 -37637-1 0  9990,2 52457  53.2175   4.1583 0001347  78.7305 198.5159 15.17895404  1300,6890.339,94.868,513.132,511.276,0.0
52457.0,STARLINK-3899,PAYLOAD,2022-06-30 14:00:01,15.16877033,0.0001277,53.2177,1.1267,83.1319,237.8361,-0.038916,-0.00722462,0.0,0 STARLINK-3899,1 52457U 22049G   22181.58334491 -.00722462  00000-0 -38916-1 0  9994,2 52457  53.2177   1.1267 0001277  83.1319 237.8361 15.16877033  1304,6893.4230000000025,94.932,516.168,514.408,0.0
52457.0,STARLINK-3899,PAYLOAD,2022-06-30 22:00:00,15.16365626,0.0001258,53.2175,359.615,78.3077,263.6013,-0.03935,-0.0072003999999999,0.0,0 STARLINK-3899,1 52457U 22049G   22181.91667824 -.00720040  00000-0 -39350-1 0  9993,2 52457  53.2175 359.6150 0001258  78.3077 263.6013 15.16365626  1301,6894.973000000001,94.964,517.705,515.97,0.0
52457.0,STARLINK-3899,PAYLOAD,2022-07-01 14:00:01,15.15347578,0.0001242,53.2177,356.5908,81.2002,300.7535,-0.040717,-0.0072343,0.0,0 STARLINK-3899,1 52457U 22049G   22182.58334491 -.00723430  00000-0 -40717-1 0  9993,2 52457  53.2177 356.5908 0001242  81.2002 300.7535 15.15347578  1301,6898.061,95.028,520.7819999999998,519.069,0.0
52457.0,STARLINK-3899,PAYLOAD,2022-07-01 22:00:00,15.14835007,0.0001227,53.2175,355.0825,87.4924,313.5647,-0.041047,-0.00719041,0.0,0 STARLINK-3899,1 52457U 22049G   22182.91667824 -.00719041  00000-0 -41047-1 0  9999,2 52457  53.2175 355.0825 0001227  87.4924 313.5647 15.14835007  1309,6899.6169999999975,95.06,522.328,520.635,0.0
52457.0,STARLINK-3899,PAYLOAD,2022-07-02 14:00:01,15.13817635,0.000129,53.2177,352.0654,80.0663,357.3583,-0.042541,-0.00723691,0.0,0 STARLINK-3899,1 52457U 22049G   22183.58334491 -.00723691  00000-0 -42541-1 0  9990,2 52457  53.2177 352.0654 0001290  80.0663 357.3583 15.13817635  1308,6902.706999999999,95.124,525.4630000000002,523.682,0.0
52457.0,STARLINK-3899,PAYLOAD,2022-07-02 22:00:00,15.13303938,0.0001276,53.2174,350.5605,89.867,4.8229,-0.042745,-0.00717161,0.0,0 STARLINK-3899,1 52457U 22049G   22183.91667824 -.00717161  00000-0 -42745-1 0  9997,2 52457  53.2174 350.5605 0001276  89.8670   4.8229 15.13303938  1300,6904.269,95.156,527.015,525.253,0.0
52457.0,STARLINK-3899,PAYLOAD,2022-07-03 00:00:00,15.13179522,0.0001367,53.2172,350.1838,92.1038,96.8056,-0.043204,-0.00721984,0.0,0 STARLINK-3899,1 52457U 22049G   22184.00001157 -.00721984  00000-0 -43204-1 0  9998,2 52457  53.2172 350.1838 0001367  92.1038  96.8056 15.13179522  9125,6904.648,95.164,527.457,525.569,0.0
52457.0,STARLINK-3899,PAYLOAD,2022-07-03 14:00:01,15.12287132,0.0001359,53.2177,347.5507,81.7595,45.6212,-0.044359,-0.00722858,0.0,0 STARLINK-3899,1 52457U 22049G   22184.58334491 -.00722858  00000-0 -44359-1 0  9994,2 52457  53.2177 347.5507 0001359  81.7595  45.6212 15.12287132  1300,6907.364000000001,95.22,530.168,528.29,0.0
52457.0,STARLINK-3899,PAYLOAD,2022-07-03 22:00:00,15.11773568,0.000136,53.2174,346.0493,99.6481,43.1594,-0.044559,-0.00716229,0.0,0 STARLINK-3899,1 52457U 22049G   22184.91667824 -.00716229  00000-0 -44559-1 0  9997,2 52457  53.2174 346.0493 0001360  99.6481  43.1594 15.11773568  1307,6908.928000000001,95.252,531.7330000000002,529.854,0.0
52457.0,STARLINK-3899,PAYLOAD,2022-07-04 06:00:00,15.11265646,0.0001357,53.2175,344.5462,93.8989,63.7226,-0.045457,-0.00720093,0.0,0 STARLINK-3899,1 52457U 22049G   22185.25001157 -.00720093  00000-0 -45457-1 0  9998,2 52457  53.2175 344.5462 0001357  93.8989  63.7226 15.11265646  9314,6910.476,95.284,533.279,531.403,0.0
52457.0,STARLINK-3899,PAYLOAD,2022-07-04 14:00:01,15.10756387,0.0001405,53.2177,343.0467,84.6412,87.1803,-0.046198,-0.00721434,0.0,0 STARLINK-3899,1 52457U 22049G   22185.58334491 -.00721434  00000-0 -46198-1 0  9997,2 52457  53.2177 343.0467 0001405  84.6412  87.1803 15.10756387  1306,6912.029,95.316,534.865,532.923,0.0
52457.0,STARLINK-3899,PAYLOAD,2022-07-04 22:00:00,15.10244159,0.0001396999999999,53.2174,341.5487,100.9464,84.4632,-0.046544,-0.00716899,0.0,0 STARLINK-3899,1 52457U 22049G   22185.91667824 -.00716899  00000-0 -46544-1 0  9997,2 52457  53.2174 341.5487 0001397 100.9464  84.4632 15.10244159  1306,6913.592,95.349,536.423,534.491,0.0
52457.0,STARLINK-3899,PAYLOAD,2022-07-05 08:00:01,15.09592107,0.0001395,53.2173,339.6742,97.3503,194.1874,-0.045206,-0.00685982,0.0,0 STARLINK-3899,1 52457U 22049G   22186.33334491 -.00685982  00000-0 -45206-1 0  9997,2 52457  53.2173 339.6742 0001395  97.3503 194.1874 15.09592107  9478,6915.581999999999,95.39,538.4119999999998,536.4830000000002,0.0
52457.0,STARLINK-3899,PAYLOAD,2022-07-05 14:00:01,15.09154562,0.0001492,53.2176,338.5527,87.2741,123.4805,-0.024344,-0.00371403,0.0,0 STARLINK-3899,1 52457U 22049G   22186.58334491 -.00371403  00000-0 -24344-1 0  9994,2 52457  53.2176 338.5527 0001492  87.2741 123.4805 15.09154562  9513,6916.919,95.418,539.816,537.752,0.0
52457.0,STARLINK-3899,PAYLOAD,2022-07-05 22:00:00,15.08831746,0.0001412,53.2173,337.0569,103.0938,119.4834,0.00054971,8.47e-05,0.0,0 STARLINK-3899,1 52457U 22049G   22186.91667824  .00008470  00000-0  54971-3 0  9990,2 52457  53.2173 337.0569 0001412 103.0938 119.4834 15.08831746  1308,6917.906,95.438,540.747,538.794,0.0
52457.0,STARLINK-3899,PAYLOAD,2022-07-06 06:00:00,15.08821787,0.0001440999999999,53.2168,335.5515,91.9887,142.0799,0.0025895,0.00041144,0.0,0 STARLINK-3899,1 52457U 22049G   22187.25001157  .00041144  00000-0  25895-2 0  9996,2 52457  53.2168 335.5515 0001441  91.9887 142.0799 15.08821787  9614,6917.936,95.439,540.798,538.804,0.0
52457.0,STARLINK-3899,PAYLOAD,2022-07-06 14:00:01,15.08856562,0.0001493,53.2165,334.0553,88.8941,156.7571,-0.0013782,-0.00022165,0.0,0 STARLINK-3899,1 52457U 22049G   22187.58334491 -.00022165  00000-0 -13782-2 0  9998,2 52457  53.2165 334.0553 0001493  88.8941 156.7571 15.08856562  1307,6917.83,95.437,540.7280000000002,538.6619999999998,0.0
52457.0,STARLINK-3899,PAYLOAD,2022-07-06 22:00:00,15.08841142,0.0001446,53.2163,332.5596,81.7225,175.5339,0.0014369,0.00022655,0.0,0 STARLINK-3899,1 52457U 22049G   22187.91667824  .00022655  00000-0  14369-2 0  9998,2 52457  53.2163 332.5596 0001446  81.7225 175.5339 15.08841142  9712,6917.877,95.437,540.742,538.742,0.0
52457.0,STARLINK-3899,PAYLOAD,2022-07-07 12:45:40,15.09149487,0.0001751999999999,53.2186,329.7968,86.8654,273.2539,-0.0036485,-0.00058376,0.0,0 STARLINK-3899,1 52457U 22049G   22188.53171731 -.00058376  00000-0 -36485-2 0  9998,2 52457  53.2186 329.7968 0001752  86.8654 273.2539 15.09149487  9802,6916.935,95.418,540.011,537.5880000000002,0.0
52457.0,STARLINK-3899,PAYLOAD,2022-07-07 22:00:00,15.08848848,0.0001344,53.2165,328.0701,79.6762,212.4363,-4.2309e-05,-9.61e-06,0.0,0 STARLINK-3899,1 52457U 22049G   22188.91667824 -.00000961  00000-0 -42309-4 0  9994,2 52457  53.2165 328.0701 0001344  79.6762 212.4363 15.08848848  9865,6917.853,95.437,540.648,538.789,0.0
52457.0,STARLINK-3899,PAYLOAD,2022-07-08 12:36:29,15.08859272,0.0001535,53.2187,325.3369,93.57,266.5468,0.00012467,1.698e-05,0.0,0 STARLINK-3899,1 52457U 22049G   22189.52533600  .00001698  00000-0  12467-3 0  9993,2 52457  53.2187 325.3369 0001535  93.5700 266.5468 15.08859272  9957,6917.821,95.436,540.748,538.625,0.0
52457.0,STARLINK-3899,PAYLOAD,2022-07-08 22:00:01,15.08881393,0.0001198,53.2166,323.5803,76.1965,250.8655,-0.0011865,-0.00019142,0.0,0 STARLINK-3899,1 52457U 22049G   22189.91668981 -.00019142  00000-0 -11865-2 0  9992,2 52457  53.2166 323.5803 0001198  76.1965 250.8655 15.08881393  1306,6917.754,95.435,540.448,538.79,0.0
52457.0,STARLINK-3899,PAYLOAD,2022-07-09 06:00:00,15.08831196,0.0001311,53.2169,322.0822,89.9025,248.7266,-0.0010614,-0.00017136,0.0,0 STARLINK-3899,1 52457U 22049G   22190.25001157 -.00017136  00000-0 -10614-2 0  9999,2 52457  53.2169 322.0822 0001311  89.9025 248.7266 15.08831196 10063,6917.906999999997,95.438,540.679,538.865,0.0
52457.0,STARLINK-3899,PAYLOAD,2022-07-09 14:00:01,15.08822805,0.0001452,53.217,320.5871,84.2773,265.9282,-0.004883,-0.00077133,0.0,0 STARLINK-3899,1 52457U 22049G   22190.58334491 -.00077133  00000-0 -48830-2 0  9999,2 52457  53.2170 320.5871 0001452  84.2773 265.9282 15.08822805  1309,6917.933000000001,95.439,540.802,538.793,0.0
52457.0,STARLINK-3899,PAYLOAD,2022-07-09 20:00:01,15.08747836,0.0001437,53.2168,319.4654,79.3358,189.5327,0.0022953,0.00036338,0.0,0 STARLINK-3899,1 52457U 22049G   22190.83334491  .00036338  00000-0  22953-2 0  9995,2 52457  53.2168 319.4654 0001437  79.3358 189.5327 15.08747836  1300,6918.1619999999975,95.443,541.021,539.033,0.0
